NORAD_CAT_ID,OBJECT_NAME,OBJECT_TYPE,EPOCH,MEAN_MOTION,ECCENTRICITY,INCLINATION,RA_OF_ASC_NODE,ARG_OF_PERICENTER,MEAN_ANOMALY,BSTAR,MEAN_MOTION_DOT,MEAN_MOTION_DDOT,TLE_LINE0,TLE_LINE1,TLE_LINE2,SEMIMAJOR_AXIS,PERIOD,APOGEE,PERIGEE,DECAYED
52131.0,STARLINK-3711,PAYLOAD,2022-10-26 03:11:58,15.08837734,0.0001595999999999,53.2188,193.302,65.8372,294.2787,-7.865e-05,-1.539e-05,0.0,0 STARLINK-3711,1 52131U 22029AV  22299.13331171 -.00001539  00000-0 -78650-4 0  9991,2 52131  53.2188 193.3020 0001596  65.8372 294.2787 15.08837734 35161,6917.887,95.438,540.856,538.648,0.0
52131.0,STARLINK-3711,PAYLOAD,2022-10-26 09:33:30,15.08840898,0.00016,53.2187,192.1128,65.6198,294.4961,-4.194e-05,-9.55e-06,0.0,0 STARLINK-3711,1 52131U 22029AV  22299.39826899 -.00000955  00000-0 -41940-4 0  9998,2 52131  53.2187 192.1128 0001600  65.6198 294.4961 15.08840898 35202,6917.878000000002,95.437,540.85,538.636,0.0
52131.0,STARLINK-3711,PAYLOAD,2022-10-27 09:24:17,15.08839389,0.0001705,53.2193,187.6536,68.0085,292.1088,0.00015519,2.183e-05,0.0,0 STARLINK-3711,1 52131U 22029AV  22300.39186749  .00002183  00000-0  15519-3 0  9999,2 52131  53.2193 187.6536 0001705  68.0085 292.1088 15.08839389 35353,6917.882,95.438,540.927,538.568,0.0
52131.0,STARLINK-3711,PAYLOAD,2022-10-27 20:31:59,15.08821561,0.0001708,53.2192,185.5746,94.2039,265.9149,0.0002962,4.427e-05,0.0,0 STARLINK-3711,1 52131U 22029AV  22300.85555076  .00004427  00000-0  29620-3 0  9994,2 52131  53.2192 185.5746 0001708  94.2039 265.9149 15.08821561 35422,6917.937,95.439,540.9830000000002,538.62,0.0
52131.0,STARLINK-3711,PAYLOAD,2022-10-27 23:42:45,15.08840441,0.0001441999999999,53.2188,184.9784,82.1072,278.0084,3.441e-05,2.6e-06,0.0,0 STARLINK-3711,1 52131U 22029AV  22300.98803072  .00000260  00000-0  34410-4 0  9995,2 52131  53.2188 184.9784 0001442  82.1072 278.0084 15.08840441 35443,6917.879,95.438,540.742,538.746,0.0
52131.0,STARLINK-3711,PAYLOAD,2022-10-28 20:22:45,15.08849756,0.0001549,53.2189,181.1102,66.7161,293.3994,-9.0414e-06,-4.32e-06,0.0,0 STARLINK-3711,1 52131U 22029AV  22301.84914297 -.00000432  00000-0 -90414-5 0  9993,2 52131  53.2189 181.1102 0001549  66.7161 293.3994 15.08849756 35574,6917.851,95.437,540.7869999999998,538.644,0.0
52131.0,STARLINK-3711,PAYLOAD,2022-10-29 09:05:51,15.08846243,0.0001411,53.2185,178.732,69.3103,290.8040000000001,-5.3714e-05,-1.143e-05,0.0,0 STARLINK-3711,1 52131U 22029AV  22302.37906366 -.00001143  00000-0 -53714-4 0  9991,2 52131  53.2185 178.7320 0001411  69.3103 290.8040 15.08846243 35658,6917.861,95.437,540.702,538.75,0.0
52131.0,STARLINK-3711,PAYLOAD,2022-10-29 20:13:33,15.08840444,0.0001376999999999,53.2187,176.6513,64.4957,295.6177,-5.0766e-05,-1.096e-05,0.0,0 STARLINK-3711,1 52131U 22029AV  22302.84274616 -.00001096  00000-0 -50766-4 0  9990,2 52131  53.2187 176.6513 0001377  64.4957 295.6177 15.08840444 35724,6917.879,95.438,540.697,538.7909999999998,0.0
52131.0,STARLINK-3711,PAYLOAD,2022-10-30 00:59:42,15.08844853,0.0001571,53.22,175.7568,67.0865,293.0293,-2.9905e-06,-3.36e-06,0.0,0 STARLINK-3711,1 52131U 22029AV  22303.04146155 -.00000336  00000-0 -29905-5 0  9997,2 52131  53.2200 175.7568 0001571  67.0865 293.0293 15.08844853 35755,6917.866,95.437,540.817,538.644,0.0
52131.0,STARLINK-3711,PAYLOAD,2022-10-30 21:39:43,15.08835017,0.0001378,53.2198,171.89,71.73,288.3842,-2.181e-05,-6.35e-06,0.0,0 STARLINK-3711,1 52131U 22029AV  22303.90258481 -.00000635  00000-0 -21810-4 0  9996,2 52131  53.2198 171.8900 0001378  71.7300 288.3842 15.08835017 35882,6917.896,95.438,540.714,538.807,0.0
52131.0,STARLINK-3711,PAYLOAD,2022-10-31 08:47:25,15.08828247,0.000137,53.2191,169.8098,76.15,283.9645,-5.9213e-05,-1.23e-05,0.0,0 STARLINK-3711,1 52131U 22029AV  22304.36627250 -.00001230  00000-0 -59213-4 0  9991,2 52131  53.2191 169.8098 0001370  76.1500 283.9645 15.08828247 35950,6917.916,95.438,540.729,538.8340000000002,0.0
52131.0,STARLINK-3711,PAYLOAD,2022-10-31 21:30:31,15.08831455,0.0001581,53.2189,167.4321,68.9597,291.1564,-4.4292e-05,-9.93e-06,0.0,0 STARLINK-3711,1 52131U 22029AV  22304.89619301 -.00000993  00000-0 -44292-4 0  9993,2 52131  53.2189 167.4321 0001581  68.9597 291.1564 15.08831455 36035,6917.906999999997,95.438,540.865,538.678,0.0
52131.0,STARLINK-3711,PAYLOAD,2022-11-01 00:41:17,15.08834251,0.0001618,53.2189,166.8372,69.3599,290.7567,-4.2062e-05,-9.57e-06,0.0,0 STARLINK-3711,1 52131U 22029AV  22305.02867184 -.00000957  00000-0 -42062-4 0  9996,2 52131  53.2189 166.8372 0001618  69.3599 290.7567 15.08834251 36059,6917.898,95.438,540.882,538.644,0.0
52131.0,STARLINK-3711,PAYLOAD,2022-11-02 00:32:04,15.08830806,0.0001585,53.2185,162.3771,67.9642,292.1519,5.6064e-05,6.04e-06,0.0,0 STARLINK-3711,1 52131U 22029AV  22306.02227358  .00000604  00000-0  56064-4 0  9994,2 52131  53.2185 162.3771 0001585  67.9642 292.1519 15.08830806 36207,6917.908,95.438,540.87,538.677,0.0
52131.0,STARLINK-3711,PAYLOAD,2022-11-02 21:12:05,15.08833168,0.0001625,53.2188,158.5117,68.6134,291.5031,-2.3175e-05,-6.57e-06,0.0,0 STARLINK-3711,1 52131U 22029AV  22306.88339778 -.00000657  00000-0 -23175-4 0  9995,2 52131  53.2188 158.5117 0001625  68.6134 291.5031 15.08833168 36330,6917.901,95.438,540.89,538.6419999999998,0.0
52131.0,STARLINK-3711,PAYLOAD,2022-11-03 00:22:52,15.08832392,0.000157,53.2179,157.9174,66.3636,293.7521,-1.9121e-05,-5.92e-06,0.0,0 STARLINK-3711,1 52131U 22029AV  22307.01588074 -.00000592  00000-0 -19121-4 0  9990,2 52131  53.2179 157.9174 0001570  66.3636 293.7521 15.08832392 36355,6917.904,95.438,540.855,538.683,0.0
52131.0,STARLINK-3711,PAYLOAD,2022-11-04 00:13:37,15.08843965,0.0001460999999999,53.2184,153.457,62.4346,297.6794,0.00011379,1.524e-05,0.0,0 STARLINK-3711,1 52131U 22029AV  22308.00946682  .00001524  00000-0  11379-3 0  9993,2 52131  53.2184 153.4570 0001461  62.4346 297.6794 15.08843965 36506,6917.868,95.437,540.744,538.7230000000002,0.0
52131.0,STARLINK-3711,PAYLOAD,2022-11-04 12:56:43,15.08839967,0.0001464,53.216,151.0789,70.1559,289.959,6.9383e-05,8.16e-06,0.0,0 STARLINK-3711,1 52131U 22029AV  22308.53938986  .00000816  00000-0  69383-4 0  9991,2 52131  53.2160 151.0789 0001464  70.1559 289.9590 15.08839967 36584,6917.88,95.438,540.758,538.7330000000002,0.0
52131.0,STARLINK-3711,PAYLOAD,2022-11-04 22:29:02,15.08838558,0.0001413,53.2157,149.2949,64.1059,296.0078,-8.374100000000001e-05,-1.62e-05,0.0,0 STARLINK-3711,1 52131U 22029AV  22308.93683736 -.00001620  00000-0 -83741-4 0  9995,2 52131  53.2157 149.2949 0001413  64.1059 296.0078 15.08838558 36641,6917.885,95.438,540.727,538.7719999999998,0.0
52131.0,STARLINK-3711,PAYLOAD,2022-11-05 12:47:31,15.08837129,0.000158,53.2176,146.6176,66.0225,294.0933,-0.00010041,-1.886e-05,0.0,0 STARLINK-3711,1 52131U 22029AV  22309.53299946 -.00001886  00000-0 -10041-3 0  9994,2 52131  53.2176 146.6176 0001580  66.0225 294.0933 15.08837129 36737,6917.889,95.438,540.847,538.661,0.0
52131.0,STARLINK-3711,PAYLOAD,2022-11-05 17:33:41,15.0882496,0.0001661,53.2168,145.7259,41.9372,318.1747,-0.00013855,-2.491e-05,0.0,0 STARLINK-3711,1 52131U 22029AV  22309.73172920 -.00002491  00000-0 -13855-3 0  9997,2 52131  53.2168 145.7259 0001661  41.9372 318.1747 15.08824960 36768,6917.926,95.439,540.94,538.6419999999998,0.0
52131.0,STARLINK-3711,PAYLOAD,2022-11-06 12:38:19,15.08817935,8.65e-05,53.2197,142.1563,67.7765,292.3319,-0.0001167,-2.143e-05,0.0,0 STARLINK-3711,1 52131U 22029AV  22310.52662004 -.00002143  00000-0 -11670-3 0  9990,2 52131  53.2197 142.1563 0000865  67.7765 292.3319 15.08817935 36881,6917.948,95.439,540.411,539.214,0.0
52131.0,STARLINK-3711,PAYLOAD,2022-11-06 18:59:51,15.08829119,0.0001672,53.2166,140.9686,64.8228,295.2938,2.5291e-05,1.14e-06,0.0,0 STARLINK-3711,1 52131U 22029AV  22310.79157063  .00000114  00000-0  25291-4 0  9992,2 52131  53.2166 140.9686 0001672  64.8228 295.2938 15.08829119 36929,6917.9140000000025,95.438,540.935,538.622,0.0
52131.0,STARLINK-3711,PAYLOAD,2022-11-06 22:10:37,15.08854009,0.0001341999999999,53.2183,140.3746,47.7498,312.3608,-0.00019406,-3.376e-05,0.0,0 STARLINK-3711,1 52131U 22029AV  22310.92404179 -.00003376  00000-0 -19406-3 0  9995,2 52131  53.2183 140.3746 0001342  47.7498 312.3608 15.08854009 36945,6917.8380000000025,95.437,540.631,538.774,0.0
52131.0,STARLINK-3711,PAYLOAD,2022-11-07 12:29:05,15.08830513,0.0001534,53.2185,137.6984,55.9907,304.123,0.00016805,2.387e-05,0.0,0 STARLINK-3711,1 52131U 22029AV  22311.52020645  .00002387  00000-0  16805-3 0  9993,2 52131  53.2185 137.6984 0001534  55.9907 304.1230 15.08830513 37034,6917.909000000002,95.438,540.836,538.7130000000002,0.0
52131.0,STARLINK-3711,PAYLOAD,2022-11-08 05:58:19,15.08843629,0.0001571,53.2188,134.4269,60.463,299.6519,0.00024586,3.627e-05,0.0,0 STARLINK-3711,1 52131U 22029AV  22312.24883625  .00003627  00000-0  24586-3 0  9991,2 52131  53.2188 134.4269 0001571  60.4630 299.6519 15.08843629 37145,6917.869000000002,95.437,540.821,538.6469999999998,0.0
52131.0,STARLINK-3711,PAYLOAD,2022-11-08 21:52:10,15.08848304,0.0001575,53.2181,131.453,64.8839,295.2317,4.1993e-05,3.8e-06,0.0,0 STARLINK-3711,1 52131U 22029AV  22312.91123810  .00000380  00000-0  41993-4 0  9993,2 52131  53.2181 131.4530 0001575  64.8839 295.2317 15.08848304 37243,6917.855,95.437,540.81,538.63,0.0
52131.0,STARLINK-3711,PAYLOAD,2022-11-09 12:10:40,15.08845868,0.0001874,53.2165,128.7755,76.9697,283.1504,-0.00021088,-3.643e-05,0.0,0 STARLINK-3711,1 52131U 22029AV  22313.50741061 -.00003643  00000-0 -21088-3 0  9992,2 52131  53.2165 128.7755 0001874  76.9697 283.1504 15.08845868 37337,6917.861999999999,95.437,541.024,538.431,0.0
52131.0,STARLINK-3711,PAYLOAD,2022-11-09 18:32:13,15.08824708,0.0001061,53.2204,127.5885,55.0209,305.0883,-0.00021441,-3.697e-05,0.0,0 STARLINK-3711,1 52131U 22029AV  22313.77238268 -.00003697  00000-0 -21441-3 0  9993,2 52131  53.2204 127.5885 0001061  55.0209 305.0883 15.08824708 37375,6917.927,95.439,540.526,539.058,0.0
